[{"OBJECT_NAME":"TEIKYOSAT-4 (OORURI)","OBJECT_ID":"2021-102B","EPOCH":"2026-03-09T16:12:29.535840","MEAN_MOTION":15.09119208,"ECCENTRICITY":0.00103447,"INCLINATION":97.3797,"RA_OF_ASC_NODE":101.9931,"ARG_OF_PERICENTER":276.5421,"MEAN_ANOMALY":83.463,"EPHEMERIS_TYPE":0,"CLASSIFICATION_TYPE":"U","NORAD_CAT_ID":49396,"ELEMENT_SET_NO":999,"REV_AT_EPOCH":23771,"BSTAR":0.00015739844,"MEAN_MOTION_DOT":2.438e-5,"MEAN_MOTION_DDOT":0},{"OBJECT_NAME":"STARLINK-4001","OBJECT_ID":"2022-052AG","EPOCH":"2026-03-09T23:06:11.215584","MEAN_MOTION":15.08829257,"ECCENTRICITY":0.00011292,"INCLINATION":53.2171,"RA_OF_ASC_NODE":282.8956,"ARG_OF_PERICENTER":97.8534,"MEAN_ANOMALY":262.2586,"EPHEMERIS_TYPE":0,"CLASSIFICATION_TYPE":"U","NORAD_CAT_ID":52628,"ELEMENT_SET_NO":999,"REV_AT_EPOCH":21082,"BSTAR":8.6178989e-5,"MEAN_MOTION_DOT":1.084e-5,"MEAN_MOTION_DDOT":0}]
